[
    {
        "Altitude(m)": 558436.8556936309,
        "Argument of Periapsis(deg)": 0.0,
        "Eccentricity": 0.0,
        "Inclination(deg)": 53.0,
        "Latitude(deg)": 46.73398761475525,
        "Longitude(deg)": -177.73992576472804,
        "Mean Anomaly(deg)": 114.54549999999999,
        "RAAN(deg)": 155.0,
        "Satellite Name": "Starlink Shell 1 689",
        "Satellite Number": 689,
        "Semi-Major Axis(m)": 6931778.249405717,
        "Time(s)": 0
    },
    {
        "Altitude(m)": 558367.3068085597,
        "Argument of Periapsis(deg)": 0.00034857847951123687,
        "Eccentricity": 0.0,
        "Inclination(deg)": 53.0,
        "Latitude(deg)": 46.427909707573846,
        "Longitude(deg)": -176.98690279739148,
        "Mean Anomaly(deg)": 115.17233120355677,
        "RAAN(deg)": 154.99948122992254,
        "Satellite Name": "Starlink Shell 1 689",
        "Satellite Number": 689,
        "Semi-Major Axis(m)": 6931778.249405717,
        "Time(s)": 10
    },
    {
        "Altitude(m)": 558296.624170415,
        "Argument of Periapsis(deg)": 0.0006971569590224737,
        "Eccentricity": 0.0,
        "Inclination(deg)": 53.0,
        "Latitude(deg)": 46.11636153081361,
        "Longitude(deg)": -176.24279260039629,
        "Mean Anomaly(deg)": 115.79916240711341,
        "RAAN(deg)": 154.99896245984505,
        "Satellite Name": "Starlink Shell 1 689",
        "Satellite Number": 689,
        "Semi-Major Axis(m)": 6931778.249405717,
        "Time(s)": 20
    },
    {
        "Altitude(m)": 558224.8516670932,
        "Argument of Periapsis(deg)": 0.0010457354385337105,
        "Eccentricity": 0.0,
        "Inclination(deg)": 53.0,
        "Latitude(deg)": 45.79946174036859,
        "Longitude(deg)": -175.50755196722798,
        "Mean Anomaly(deg)": 116.42599361067018,
        "RAAN(deg)": 154.99844368976758,
        "Satellite Name": "Starlink Shell 1 689",
        "Satellite Number": 689,
        "Semi-Major Axis(m)": 6931778.249405717,
        "Time(s)": 30
    },
    {
        "Altitude(m)": 558152.0339454785,
        "Argument of Periapsis(deg)": 0.0013943139180449475,
        "Eccentricity": 0.0,
        "Inclination(deg)": 53.0,
        "Latitude(deg)": 45.47732768714145,
        "Longitude(deg)": -174.78112930776246,
        "Mean Anomaly(deg)": 117.05282481422684,
        "RAAN(deg)": 154.99792491969012,
        "Satellite Name": "Starlink Shell 1 689",
        "Satellite Number": 689,
        "Semi-Major Axis(m)": 6931778.249405717,
        "Time(s)": 40
    },
    {
        "Altitude(m)": 558078.2163892185,
        "Argument of Periapsis(deg)": 0.0017428923975561844,
        "Eccentricity": 0.0,
        "Inclination(deg)": 53.0,
        "Latitude(deg)": 45.150075327632244,
        "Longitude(deg)": -174.0634661836262,
        "Mean Anomaly(deg)": 117.67965601778359,
        "RAAN(deg)": 154.99740614961263,
        "Satellite Name": "Starlink Shell 1 689",
        "Satellite Number": 689,
        "Semi-Major Axis(m)": 6931778.249405717,
        "Time(s)": 50
    },
    {
        "Altitude(m)": 558003.4450961038,
        "Argument of Periapsis(deg)": 0.002091470877067421,
        "Eccentricity": 0.0,
        "Inclination(deg)": 53.0,
        "Latitude(deg)": 44.81781914382115,
        "Longitude(deg)": -173.35449731794864,
        "Mean Anomaly(deg)": 118.30648722134032,
        "RAAN(deg)": 154.99688737953517,
        "Satellite Name": "Starlink Shell 1 689",
        "Satellite Number": 689,
        "Semi-Major Axis(m)": 6931778.249405717,
        "Time(s)": 60
    },
    {
        "Altitude(m)": 557927.7668551041,
        "Argument of Periapsis(deg)": 0.0024400493565786582,
        "Eccentricity": 0.0,
        "Inclination(deg)": 53.0,
        "Latitude(deg)": 44.480672071949044,
        "Longitude(deg)": -172.65415059091146,
        "Mean Anomaly(deg)": 118.93331842489698,
        "RAAN(deg)": 154.9963686094577,
        "Satellite Name": "Starlink Shell 1 689",
        "Satellite Number": 689,
        "Semi-Major Axis(m)": 6931778.249405717,
        "Time(s)": 70
    },
    {
        "Altitude(m)": 557851.2291229962,
        "Argument of Periapsis(deg)": 0.002788627836089895,
        "Eccentricity": 0.0,
        "Inclination(deg)": 53.0,
        "Latitude(deg)": 44.13874543978969,
        "Longitude(deg)": -171.96234853274126,
        "Mean Anomaly(deg)": 119.56014962845373,
        "RAAN(deg)": 154.9958498393802,
        "Satellite Name": "Starlink Shell 1 689",
        "Satellite Number": 689,
        "Semi-Major Axis(m)": 6931778.249405717,
        "Time(s)": 80
    },
    {
        "Altitude(m)": 557773.8800006489,
        "Argument of Periapsis(deg)": 0.0031372063156011316,
        "Eccentricity": 0.0,
        "Inclination(deg)": 53.0,
        "Latitude(deg)": 43.792148911986025,
        "Longitude(deg)": -171.2790082873956,
        "Mean Anomaly(deg)": 120.1869808320104,
        "RAAN(deg)": 154.99533106930275,
        "Satellite Name": "Starlink Shell 1 689",
        "Satellite Number": 689,
        "Semi-Major Axis(m)": 6931778.249405717,
        "Time(s)": 90
    },
    {
        "Altitude(m)": 557695.7682089725,
        "Argument of Periapsis(deg)": 0.0034857847951123688,
        "Eccentricity": 0.0,
        "Inclination(deg)": 53.0,
        "Latitude(deg)": 43.44099044302707,
        "Longitude(deg)": -170.60404155901443,
        "Mean Anomaly(deg)": 120.81381203556717,
        "RAAN(deg)": 154.9948122992253,
        "Satellite Name": "Starlink Shell 1 689",
        "Satellite Number": 689,
        "Semi-Major Axis(m)": 6931778.249405717,
        "Time(s)": 100
    },
    {
        "Altitude(m)": 557616.9430644943,
        "Argument of Periapsis(deg)": 0.003834363274623606,
        "Eccentricity": 0.0,
        "Inclination(deg)": 53.0,
        "Latitude(deg)": 43.085376237441096,
        "Longitude(deg)": -169.93735605340672,
        "Mean Anomaly(deg)": 121.44064323912389,
        "RAAN(deg)": 154.9942935291478,
        "Satellite Name": "Starlink Shell 1 689",
        "Satellite Number": 689,
        "Semi-Major Axis(m)": 6931778.249405717,
        "Time(s)": 110
    },
    {
        "Altitude(m)": 557537.4544546574,
        "Argument of Periapsis(deg)": 0.004182941754134842,
        "Eccentricity": 0.0,
        "Inclination(deg)": 53.0,
        "Latitude(deg)": 42.72541071677137,
        "Longitude(deg)": -169.27885538838808,
        "Mean Anomaly(deg)": 122.06747444268059,
        "RAAN(deg)": 154.99377475907033,
        "Satellite Name": "Starlink Shell 1 689",
        "Satellite Number": 689,
        "Semi-Major Axis(m)": 6931778.249405717,
        "Time(s)": 120
    },
    {
        "Altitude(m)": 557457.3528127584,
        "Argument of Periapsis(deg)": 0.004531520233646079,
        "Eccentricity": 0.0,
        "Inclination(deg)": 53.0,
        "Latitude(deg)": 42.36119649291696,
        "Longitude(deg)": -168.62843898557105,
        "Mean Anomaly(deg)": 122.69430564623725,
        "RAAN(deg)": 154.99325598899287,
        "Satellite Name": "Starlink Shell 1 689",
        "Satellite Number": 689,
        "Semi-Major Axis(m)": 6931778.249405717,
        "Time(s)": 130
    },
    {
        "Altitude(m)": 557376.6890926088,
        "Argument of Periapsis(deg)": 0.0048800987131573164,
        "Eccentricity": 0.0,
        "Inclination(deg)": 53.0,
        "Latitude(deg)": 41.99283434742452,
        "Longitude(deg)": -167.98600345634367,
        "Mean Anomaly(deg)": 123.321136849794,
        "RAAN(deg)": 154.99273721891538,
        "Satellite Name": "Starlink Shell 1 689",
        "Satellite Number": 689,
        "Semi-Major Axis(m)": 6931778.249405717,
        "Time(s)": 140
    },
    {
        "Altitude(m)": 557295.5147428898,
        "Argument of Periapsis(deg)": 0.005228677192668553,
        "Eccentricity": 0.0,
        "Inclination(deg)": 53.0,
        "Latitude(deg)": 41.62042321632126,
        "Longitude(deg)": -167.35144245628717,
        "Mean Anomaly(deg)": 123.94796805335073,
        "RAAN(deg)": 154.99221844883792,
        "Satellite Name": "Starlink Shell 1 689",
        "Satellite Number": 689,
        "Semi-Major Axis(m)": 6931778.249405717,
        "Time(s)": 150
    },
    {
        "Altitude(m)": 557213.8816812411,
        "Argument of Periapsis(deg)": 0.00557725567217979,
        "Eccentricity": 0.0,
        "Inclination(deg)": 53.0,
        "Latitude(deg)": 41.24406018009495,
        "Longitude(deg)": -166.72464652100842,
        "Mean Anomaly(deg)": 124.57479925690745,
        "RAAN(deg)": 154.99169967876043,
        "Satellite Name": "Starlink Shell 1 689",
        "Satellite Number": 689,
        "Semi-Major Axis(m)": 6931778.249405717,
        "Time(s)": 160
    },
    {
        "Altitude(m)": 557131.8422680618,
        "Argument of Periapsis(deg)": 0.0059258341516910265,
        "Eccentricity": 0.0,
        "Inclination(deg)": 53.0,
        "Latitude(deg)": 40.86384045844239,
        "Longitude(deg)": -166.1055043964656,
        "Mean Anomaly(deg)": 125.2016304604642,
        "RAAN(deg)": 154.99118090868296,
        "Satellite Name": "Starlink Shell 1 689",
        "Satellite Number": 689,
        "Semi-Major Axis(m)": 6931778.249405717,
        "Time(s)": 170
    },
    {
        "Altitude(m)": 557049.4492800812,
        "Argument of Periapsis(deg)": 0.006274412631202263,
        "Eccentricity": 0.0,
        "Inclination(deg)": 53.0,
        "Latitude(deg)": 40.47985740941098,
        "Longitude(deg)": -165.49390283833085,
        "Mean Anomaly(deg)": 125.82846166402088,
        "RAAN(deg)": 154.9906621386055,
        "Satellite Name": "Starlink Shell 1 689",
        "Satellite Number": 689,
        "Semi-Major Axis(m)": 6931778.249405717,
        "Time(s)": 180
    }
]